ONEWEB-0176             
1 48210U 21031A   24247.00179959  .00000163  00000+0  40648-3 0  9995
2 48210  87.8930  59.4039 0001717  92.2890 267.8436 13.14504156163925
ONEWEB-0184             
1 48211U 21031B   24246.89872892 -.00000240  00000+0 -68281-3 0  9999
2 48211  87.8927  59.4053 0001865 124.0448 236.0859 13.14499344162596
ONEWEB-0179             
1 48212U 21031C   24246.94472244  .00000106  00000+0  25042-3 0  9990
2 48212  87.8932  59.4020 0001875  91.1005 269.0339 13.14499691162641
ONEWEB-0180             
1 48213U 21031D   24246.97803100 -.00000154  00000+0 -44932-3 0  9997
2 48213  87.8928  59.3914 0001946  91.6875 268.4477 13.14501387162537
ONEWEB-0218             
1 48214U 21031E   24247.00022959  .00000139  00000+0  33946-3 0  9992
2 48214  87.8925  59.3885 0002229 120.6222 239.5127 13.14500921162697
ONEWEB-0209             
1 48215U 21031F   24246.91301178 -.00000086  00000+0 -26748-3 0  9990
2 48215  87.8928  59.4416 0001967  90.9060 269.2295 13.14500883162681
ONEWEB-0198             
1 48216U 21031G   24247.20162824 -.00000152  00000+0 -44450-3 0  9991
2 48216  87.8930  59.3881 0002014 101.4233 258.7123 13.14501971162811
ONEWEB-0189             
1 48217U 21031H   24246.98594551 -.00000401  00000+0 -11167-2 0  9997
2 48217  87.8925  59.4064 0002097 101.8227 258.3138 13.14501733162546
